TRANSPORTER-16 OBJECT BM
1 68475U 26067BM  26115.53949031  .00008117  00000+0  82265-3 0  9992
2 68475  97.7484  74.5748 0002167 210.6665 149.4427 14.91164977  3359
TRANSPORTER-16 OBJECT BN
1 68476U 26067BN  26115.58450156  .00003652  00000+0  36263-3 0  9999
2 68476  97.7527  74.6775 0004092  82.4602 277.7082 14.92339702  3885
TRANSPORTER-16 OBJECT BP
1 68477U 26067BP  26115.53950836  .00007444  00000+0  75550-3 0  9990
2 68477  97.7491  74.5755 0002816 217.6527 142.4494 14.91137396  3286
FOSSASAT-2E25           
1 68478U 26067BQ  26114.58262756  .00002075  00000+0  20999-3 0  9994
2 68478  97.7562  73.6911 0003475  94.3555 265.8061 14.92040553  3732
TRANSPORTER-16 OBJECT BR
1 68479U 26067BR  26115.58778580  .00004913  00000+0  48819-3 0  9997
2 68479  97.7514  74.6696 0003213  81.7722 278.3861 14.92148166  3889
TRANSPORTER-16 OBJECT BS
1 68480U 26067BS  26115.64688852  .00003231  00000+0  31938-3 0  9994
2 68480  97.7591  74.7666 0005717  85.8437 274.3436 14.92592974  3898
TORO3                   
1 68481U 26067BT  26115.58972207  .00001680  00000+0  17125-3 0  9996
2 68481  97.7633  74.6979 0004177 114.0687 246.0969 14.91997938  3887
TRANSPORTER-16 OBJECT BU
1 68482U 26067BU  26115.64690613  .00003373  00000+0  33320-3 0  9998
2 68482  97.7538  74.7528 0005190  73.4194 286.7595 14.92592258  3894
TRANSPORTER-16 OBJECT BV
1 68483U 26067BV  26115.78544764  .00004283  00000+0  42449-3 0  9992
2 68483  97.7612  74.8976 0004913  95.5695 264.6084 14.92321292  3918
TRANSPORTER-16 OBJECT BW
1 68484U 26067BW  26114.25079948  .00001350  00000+0  13921-3 0  9996
2 68484  97.7583  73.3622 0002892 116.5259 243.6256 14.91861678  3680
TRANSPORTER-16 OBJECT BX
1 68485U 26067BX  26115.79148648  .00006579  00000+0  65316-3 0  9994
2 68485  97.7549  74.8734 0003026 104.0611 256.0945 14.92062502  3916
TRANSPORTER-16 OBJECT BY
1 68486U 26067BY  26115.52608844  .00002213  00000+0  22490-3 0  9992
2 68486  97.7547  74.6045 0002390 105.3724 254.7759 14.91798481  3874
TRANSPORTER-16 OBJECT BZ
1 68487U 26067BZ  26115.58565321  .00003762  00000+0  37401-3 0  9999
2 68487  97.7507  74.6713 0003501  74.7048 285.4558 14.92275825  3888
TRANSPORTER-16 OBJECT CA
1 68488U 26067CA  26115.53098878  .00000999  00000+0  10506-3 0  9999
2 68488  97.7537  74.5968 0001440 130.3296 229.8049 14.91592036  3878
TRANSPORTER-16 OBJECT CB
1 68489U 26067CB  26115.60202411  .00002091  00000+0  21549-3 0  9992
2 68489  97.7505  74.6474 0000830 188.7979 171.3225 14.91303716  3887
TRANSPORTER-16 OBJECT CC
1 68490U 26067CC  26115.53353322  .00001668  00000+0  17267-3 0  9995
2 68490  97.7580  74.6040 0002223 156.3004 203.8318 14.91374861  3871
